NORAD_CAT_ID,OBJECT_NAME,OBJECT_TYPE,EPOCH,MEAN_MOTION,ECCENTRICITY,INCLINATION,RA_OF_ASC_NODE,ARG_OF_PERICENTER,MEAN_ANOMALY,BSTAR,MEAN_MOTION_DOT,MEAN_MOTION_DDOT,TLE_LINE0,TLE_LINE1,TLE_LINE2,SEMIMAJOR_AXIS,PERIOD,APOGEE,PERIGEE,DECAYED
49165.0,STARLINK-3052,PAYLOAD,2023-07-08 08:55:25,14.98329813,0.0003875,69.9988,233.5683,269.0617,91.0098,-4.1352e-06,-1.42e-06,0.0,0 STARLINK-3052,1 49165U 21082AM  23189.37182044 -.00000142  00000-0 -41352-5 0  9999,2 49165  69.9988 233.5683 0003875 269.0617  91.0098 14.98329813101096,6950.193,96.107,574.752,569.365,0.0
49165.0,STARLINK-3052,PAYLOAD,2023-07-09 12:09:42,14.98326314,0.0003925,69.9989,230.7069,269.2448,90.8262,-6.1176e-05,-8.23e-06,0.0,0 STARLINK-3052,1 49165U 21082AM  23190.50674476 -.00000823  00000-0 -61176-4 0  9992,2 49165  69.9989 230.7069 0003925 269.2448  90.8262 14.98326314101266,6950.204,96.107,574.797,569.341,0.0
49165.0,STARLINK-3052,PAYLOAD,2023-07-10 12:11:43,14.98329373,0.0004039,69.9985,228.1817,269.2452,90.8245,4.2329e-05,4.12e-06,0.0,0 STARLINK-3052,1 49165U 21082AM  23191.50814118  .00000412  00000-0  42329-4 0  9993,2 49165  69.9985 228.1817 0004039 269.2452  90.8245 14.98329373101412,6950.195,96.107,574.867,569.253,0.0
49165.0,STARLINK-3052,PAYLOAD,2023-07-11 12:13:43,14.98333606,0.0004085,69.9984,225.6567,268.9072,91.1619,0.00011549,1.285e-05,0.0,0 STARLINK-3052,1 49165U 21082AM  23192.50953610  .00001285  00000-0  11549-3 0  9993,2 49165  69.9984 225.6567 0004085 268.9072  91.1619 14.98333606101569,6950.182,96.107,574.886,569.208,0.0
49165.0,STARLINK-3052,PAYLOAD,2023-07-12 09:03:29,14.98331249,0.0004051,69.9985,223.4684,268.4697,91.5998,1.4865e-05,8.4e-07,0.0,0 STARLINK-3052,1 49165U 21082AM  23193.37741902  .00000084  00000-0  14865-4 0  9999,2 49165  69.9985 223.4684 0004051 268.4697  91.5998 14.98331249101696,6950.189,96.107,574.87,569.239,0.0
49165.0,STARLINK-3052,PAYLOAD,2023-07-13 12:17:45,14.98332842,0.0003981,69.9987,220.6068,269.0089,91.0614,-1.4053e-05,-2.61e-06,0.0,0 STARLINK-3052,1 49165U 21082AM  23194.51233722 -.00000261  00000-0 -14053-4 0  9990,2 49165  69.9987 220.6068 0003981 269.0089  91.0614 14.98332842101865,6950.184,96.107,574.816,569.282,0.0
49165.0,STARLINK-3052,PAYLOAD,2023-07-14 12:19:46,14.98329727,0.0003995,69.9987,218.082,268.6715,91.3987,2.1052e-05,1.58e-06,0.0,0 STARLINK-3052,1 49165U 21082AM  23195.51373772  .00000158  00000-0  21052-4 0  9991,2 49165  69.9987 218.0820 0003995 268.6715  91.3987 14.98329727102010,6950.194,96.107,574.835,569.282,0.0
49165.0,STARLINK-3052,PAYLOAD,2023-07-15 18:46:20,14.98326515,0.0004013,69.9984,214.8836,265.1559,94.9142,9.1639e-05,1e-05,0.0,0 STARLINK-3052,1 49165U 21082AM  23196.78217746  .00001000  00000-0  91639-4 0  9994,2 49165  69.9984 214.8836 0004013 265.1559  94.9142 14.98326515102203,6950.204,96.107,574.858,569.28,0.0
49165.0,STARLINK-3052,PAYLOAD,2023-07-16 18:48:21,14.98329002,0.0004052,69.9982,212.3586,269.1485,90.921,7.4812e-05,8e-06,0.0,0 STARLINK-3052,1 49165U 21082AM  23197.78357645  .00000800  00000-0  74812-4 0  9999,2 49165  69.9982 212.3586 0004052 269.1485  90.9210 14.98329002102353,6950.196,96.107,574.877,569.245,0.0
49165.0,STARLINK-3052,PAYLOAD,2023-07-18 10:51:42,14.9833162,0.0003956,69.9992,208.1511,267.0086,93.062,3.8508e-05,3.66e-06,0.0,0 STARLINK-3052,1 49165U 21082AM  23199.45257351  .00000366  00000-0  38508-4 0  9997,2 49165  69.9992 208.1511 0003956 267.0086  93.0620 14.98331620102607,6950.188,96.107,574.802,569.303,0.0
49165.0,STARLINK-3052,PAYLOAD,2023-07-19 10:53:43,14.98330159,0.0003927,69.9993,205.6264,267.1442,92.9268,1.6989e-06,-7.3e-07,0.0,0 STARLINK-3052,1 49165U 21082AM  23200.45397462 -.00000073  00000-0  16989-5 0  9994,2 49165  69.9993 205.6264 0003927 267.1442  92.9268 14.98330159102758,6950.192,96.107,574.787,569.328,0.0
49165.0,STARLINK-3052,PAYLOAD,2023-07-20 23:44:48,14.98329991,0.0003999,69.9993,201.7549,267.0305,93.0397,2.9986e-05,2.65e-06,0.0,0 STARLINK-3052,1 49165U 21082AM  23201.98945371  .00000265  00000-0  29986-4 0  9993,2 49165  69.9993 201.7549 0003999 267.0305  93.0397 14.98329991102989,6950.193,96.107,574.837,569.279,0.0
49165.0,STARLINK-3052,PAYLOAD,2023-07-24 11:03:47,14.98333145,0.0003989,69.9991,193.0028,265.8643,94.2061,4.9179e-05,4.94e-06,0.0,0 STARLINK-3052,1 49165U 21082AM  23205.46096924  .00000494  00000-0  49179-4 0  9991,2 49165  69.9991 193.0028 0003989 265.8643  94.2061 14.98333145103496,6950.183,96.107,574.821,569.276,0.0
49165.0,STARLINK-3052,PAYLOAD,2023-07-25 09:29:41,14.98327895,0.0003723,69.9999,190.6458,268.1015,91.9718,1.5484e-05,9.2e-07,0.0,0 STARLINK-3052,1 49165U 21082AM  23206.39561430  .00000092  00000-0  15484-4 0  9999,2 49165  69.9999 190.6458 0003723 268.1015  91.9718 14.98327895103633,6950.199,96.107,574.652,569.477,0.0
49165.0,STARLINK-3052,PAYLOAD,2023-07-26 11:07:49,14.98331603,0.0003842,69.9993,187.9527,266.0646,94.0074,6.7692e-05,7.15e-06,0.0,0 STARLINK-3052,1 49165U 21082AM  23207.46376932  .00000715  00000-0  67692-4 0  9999,2 49165  69.9993 187.9527 0003842 266.0646  94.0074 14.98331603103790,6950.188,96.107,574.723,569.383,0.0
49165.0,STARLINK-3052,PAYLOAD,2023-07-26 22:20:46,14.98332499,0.0003836,69.9996,186.7745,266.173,93.8991,6.8834e-05,7.28e-06,0.0,0 STARLINK-3052,1 49165U 21082AM  23207.93108826  .00000728  00000-0  68834-4 0  9999,2 49165  69.9996 186.7745 0003836 266.1730  93.8991 14.98332499103867,6950.185,96.107,574.716,569.384,0.0
49165.0,STARLINK-3052,PAYLOAD,2023-07-27 11:09:50,14.9833752,0.0003861,69.9996,185.4281,267.0068,93.0649,0.00010977,1.217e-05,0.0,0 STARLINK-3052,1 49165U 21082AM  23208.46516294  .00001217  00000-0  10977-3 0  9998,2 49165  69.9996 185.4281 0003861 267.0068  93.0649 14.98337520103941,6950.17,96.107,574.718,569.351,0.0
49165.0,STARLINK-3052,PAYLOAD,2023-07-27 15:58:15,14.98326207,0.0003812,69.9998,184.9237,268.4611,91.6111,-1.8973e-05,-3.19e-06,0.0,0 STARLINK-3052,1 49165U 21082AM  23208.66545325 -.00000319  00000-0 -18973-4 0  9996,2 49165  69.9998 184.9237 0003812 268.4611  91.6111 14.98326207103985,6950.205,96.107,574.719,569.42,0.0
49165.0,STARLINK-3052,PAYLOAD,2023-07-28 09:35:44,14.98325825,0.0003848,69.9999,183.073,266.3806,93.6913,-3.9529e-05,-5.65e-06,0.0,0 STARLINK-3052,1 49165U 21082AM  23209.39981598 -.00000565  00000-0 -39529-4 0  9996,2 49165  69.9999 183.0730 0003848 266.3806  93.6913 14.98325825104085,6950.206,96.107,574.745,569.396,0.0
49165.0,STARLINK-3052,PAYLOAD,2023-07-28 16:00:16,14.98328732,0.0003803,69.9999,182.3983,267.1455,92.9268,-2.5959e-05,-4.03e-06,0.0,0 STARLINK-3052,1 49165U 21082AM  23209.66685416 -.00000403  00000-0 -25959-4 0  9999,2 49165  69.9999 182.3983 0003803 267.1455  92.9268 14.98328732104138,6950.197,96.107,574.705,569.419,0.0
49165.0,STARLINK-3052,PAYLOAD,2023-07-29 08:01:36,14.98335534,0.0003809,69.9998,180.7151,266.7929,93.2795,3.7711e-05,3.57e-06,0.0,0 STARLINK-3052,1 49165U 21082AM  23210.33444793  .00000357  00000-0  37711-4 0  9991,2 49165  69.9998 180.7151 0003809 266.7929  93.2795 14.98335534104231,6950.176,96.107,574.688,569.393,0.0
49165.0,STARLINK-3052,PAYLOAD,2023-07-30 08:03:36,14.98334982,0.0003759,69.9999,178.1904,267.0094,93.0635,0.00017632,2.012e-05,0.0,0 STARLINK-3052,1 49165U 21082AM  23211.33584447  .00002012  00000-0  17632-3 0  9992,2 49165  69.9999 178.1904 0003759 267.0094  93.0635 14.98334982104383,6950.177,96.107,574.655,569.43,0.0
49165.0,STARLINK-3052,PAYLOAD,2023-07-31 01:41:06,14.98331444,0.0003597,70.0002,176.3389,266.9301,93.1447,-6.3767e-06,-1.69e-06,0.0,0 STARLINK-3052,1 49165U 21082AM  23212.07021088 -.00000169  00000-0 -63767-5 0  9996,2 49165  70.0002 176.3389 0003597 266.9301  93.1447 14.98331444104491,6950.188,96.107,574.553,569.553,0.0
49165.0,STARLINK-3052,PAYLOAD,2023-08-01 01:43:07,14.98331063,0.0003361,70.0007,173.815,264.3661,95.7115,-2.1241e-05,-3.46e-06,0.0,0 STARLINK-3052,1 49165U 21082AM  23213.07161055 -.00000346  00000-0 -21241-4 0  9993,2 49165  70.0007 173.8150 0003361 264.3661  95.7115 14.98331063104648,6950.19,96.107,574.391,569.719,0.0
49165.0,STARLINK-3052,PAYLOAD,2023-08-02 06:33:32,14.98330047,0.0003396,70.0005,170.7853,265.1925,94.8847,3.9172e-05,3.74e-06,0.0,0 STARLINK-3052,1 49165U 21082AM  23214.27328984  .00000374  00000-0  39172-4 0  9993,2 49165  70.0005 170.7853 0003396 265.1925  94.8847 14.98330047104825,6950.193,96.107,574.418,569.697,0.0
49165.0,STARLINK-3052,PAYLOAD,2023-08-03 06:35:32,14.98333854,0.0003434,70.0002,168.2599,270.2223,89.8543,0.00010929,1.211e-05,0.0,0 STARLINK-3052,1 49165U 21082AM  23215.27468601  .00001211  00000-0  10929-3 0  9994,2 49165  70.0002 168.2599 0003434 270.2223  89.8543 14.98333854104974,6950.181,96.107,574.433,569.659,0.0
49165.0,STARLINK-3052,PAYLOAD,2023-08-03 14:36:13,14.98328347,0.0003388,70.0002,167.4176,270.2194,89.8577,2.4695e-05,2.02e-06,0.0,0 STARLINK-3052,1 49165U 21082AM  23215.60849144  .00000202  00000-0  24695-4 0  9991,2 49165  70.0002 167.4176 0003388 270.2194  89.8577 14.98328347105026,6950.198,96.107,574.418,569.708,0.0
49165.0,STARLINK-3052,PAYLOAD,2023-08-05 01:51:10,14.98336623,0.0003378,70.0002,163.7151,270.4961,89.5811,7.7597e-05,8.33e-06,0.0,0 STARLINK-3052,1 49165U 21082AM  23217.07720539  .00000833  00000-0  77597-4 0  9999,2 49165  70.0002 163.7151 0003378 270.4961  89.5811 14.98336623105249,6950.172,96.107,574.385,569.69,0.0
49165.0,STARLINK-3052,PAYLOAD,2023-08-05 08:15:41,14.98346763,0.0003418,70.0002,163.0423,271.6377,88.4391,0.00016043,1.823e-05,0.0,0 STARLINK-3052,1 49165U 21082AM  23217.34423543  .00001823  00000-0  16043-3 0  9992,2 49165  70.0002 163.0423 0003418 271.6377  88.4391 14.98346763105284,6950.141,96.106,574.382,569.63,0.0
49165.0,STARLINK-3052,PAYLOAD,2023-08-06 03:29:19,14.983322,0.0002863,70.0015,161.0255,258.8142,101.2696,0.00015454,1.752e-05,0.0,0 STARLINK-3052,1 49165U 21082AM  23218.14536258  .00001752  00000-0  15454-3 0  9995,2 49165  70.0015 161.0255 0002863 258.8142 101.2696 14.98332200105406,6950.186,96.107,574.041,570.061,0.0
